ASTROCAST-0401          
1 55110U 23001DF  26068.71172895  .00009750  00000+0  37868-3 0  9995
2 55110  97.5547 160.5206 0008142 188.4231 171.6872 15.26258462176022
STARLINK-34132          
1 64086U 25107Y   26068.39729572  .00037658  00000+0  13698-2 0  9992
2 64086  42.9988 203.3747 0003278 293.6744  66.3764 15.27605260 46047
